NORAD_CAT_ID,OBJECT_NAME,OBJECT_TYPE,EPOCH,MEAN_MOTION,ECCENTRICITY,INCLINATION,RA_OF_ASC_NODE,ARG_OF_PERICENTER,MEAN_ANOMALY,BSTAR,MEAN_MOTION_DOT,MEAN_MOTION_DDOT,TLE_LINE0,TLE_LINE1,TLE_LINE2,SEMIMAJOR_AXIS,PERIOD,APOGEE,PERIGEE,DECAYED
50157.0,STARLINK-3313,PAYLOAD,2022-03-22 04:00:00,15.08870862,0.0002063,53.2174,281.7997,42.5204,292.6534,-0.0043913999999999,-0.00069564,0.0,0 STARLINK-3313,1 50157U 21125B   22081.16667824 -.00069564  00000-0 -43914-2 0  9997,2 50157  53.2174 281.7997 0002063  42.5204 292.6534 15.08870862 14688,6917.786,95.436,541.078,538.224,0.0
50157.0,STARLINK-3313,PAYLOAD,2022-03-22 12:00:00,15.08805661,0.0001883,53.2178,280.3019,47.2461,299.5388,0.00256,0.00040652,0.0,0 STARLINK-3313,1 50157U 21125B   22081.50001157  .00040652  00000-0  25600-2 0  9993,2 50157  53.2178 280.3019 0001883  47.2461 299.5388 15.08805661 14732,6917.985,95.44,541.153,538.548,0.0
50157.0,STARLINK-3313,PAYLOAD,2022-03-22 14:00:01,15.08826678,0.0001902,53.2179,279.9281,47.4311,32.2393,0.00051324,7.887e-05,0.0,0 STARLINK-3313,1 50157U 21125B   22081.58334491  .00007887  00000-0  51324-3 0  9997,2 50157  53.2179 279.9281 0001902  47.4311  32.2393 15.08826678  3609,6917.920999999999,95.438,541.102,538.47,0.0
50157.0,STARLINK-3313,PAYLOAD,2022-03-22 22:00:01,15.08812647,0.000209,53.2179,278.4335,42.7872,48.5291,0.0014174,0.00022325,0.0,0 STARLINK-3313,1 50157U 21125B   22081.91668981  .00022325  00000-0  14174-2 0  9993,2 50157  53.2179 278.4335 0002090  42.7872  48.5291 15.08812647  3600,6917.964,95.439,541.275,538.383,0.0
50157.0,STARLINK-3313,PAYLOAD,2022-03-23 06:00:00,15.08839138,0.0001952,53.2177,276.9359,45.1735,57.654,-0.0011907,-0.00019188,0.0,0 STARLINK-3313,1 50157U 21125B   22082.25001157 -.00019188  00000-0 -11907-2 0  9993,2 50157  53.2177 276.9359 0001952  45.1735  57.6540 15.08839138 14859,6917.8830000000025,95.438,541.0980000000002,538.398,0.0
50157.0,STARLINK-3313,PAYLOAD,2022-03-23 14:00:01,15.08843615,0.0001906,53.218,275.4393,48.8367,65.5734,-8.8517e-06,-4.29e-06,0.0,0 STARLINK-3313,1 50157U 21125B   22082.58334491 -.00000429  00000-0 -88517-5 0  9991,2 50157  53.2180 275.4393 0001906  48.8367  65.5734 15.08843615  3615,6917.869000000002,95.437,541.053,538.4159999999998,0.0
50157.0,STARLINK-3313,PAYLOAD,2022-03-23 20:00:01,15.08840011,0.0002075,53.2178,274.3186,45.0449,348.0646,-0.00042446,-7.037e-05,0.0,0 STARLINK-3313,1 50157U 21125B   22082.83334491 -.00007037  00000-0 -42446-3 0  9990,2 50157  53.2178 274.3186 0002075  45.0449 348.0646 15.08840011 14944,6917.88,95.438,541.181,538.31,0.0
50157.0,STARLINK-3313,PAYLOAD,2022-03-23 22:00:00,15.08823365,0.0002078,53.2178,273.9447,43.9008,82.1118,0.0019202,0.00030391,0.0,0 STARLINK-3313,1 50157U 21125B   22082.91667824  .00030391  00000-0  19202-2 0  9998,2 50157  53.2178 273.9447 0002078  43.9008  82.1118 15.08823365  3604,6917.931,95.439,541.234,538.359,0.0
50157.0,STARLINK-3313,PAYLOAD,2022-03-24 14:00:01,15.08861585,0.0001906,53.2176,270.9506,50.1667,99.0327,-0.00080346,-0.0001306,0.0,0 STARLINK-3313,1 50157U 21125B   22083.58334491 -.00013060  00000-0 -80346-3 0  9997,2 50157  53.2176 270.9506 0001906  50.1667  99.0327 15.08861585  3587,6917.814,95.436,540.998,538.361,0.0
50157.0,STARLINK-3313,PAYLOAD,2022-03-24 22:00:00,15.08829437,0.0002029,53.2173,269.4559,43.5206,117.3014,0.00030186,4.518e-05,0.0,0 STARLINK-3313,1 50157U 21125B   22083.91667824  .00004518  00000-0  30186-3 0  9996,2 50157  53.2173 269.4559 0002029  43.5206 117.3014 15.08829437 15105,6917.913000000001,95.438,541.181,538.374,0.0
50157.0,STARLINK-3313,PAYLOAD,2022-03-25 14:00:01,15.08846459,0.0001871,53.217,266.4619,49.6229,134.3652,-0.00085961,-0.00013945,0.0,0 STARLINK-3313,1 50157U 21125B   22084.58334491 -.00013945  00000-0 -85961-3 0  9998,2 50157  53.2170 266.4619 0001871  49.6229 134.3652 15.08846459  3592,6917.861,95.437,541.02,538.431,0.0
50157.0,STARLINK-3313,PAYLOAD,2022-03-25 22:00:01,15.08820171,0.0002036,53.2167,264.9671,43.187,152.4702,0.0025081,0.00039833,0.0,0 STARLINK-3313,1 50157U 21125B   22084.91668981  .00039833  00000-0  25081-2 0  9997,2 50157  53.2167 264.9671 0002036  43.1870 152.4702 15.08820171  3606,6917.941,95.439,541.214,538.398,0.0
50157.0,STARLINK-3313,PAYLOAD,2022-03-26 06:00:00,15.0883848,0.0001838,53.2165,263.4691,45.1891,162.001,-0.0017145,-0.0002747,0.0,0 STARLINK-3313,1 50157U 21125B   22085.25001157 -.00027470  00000-0 -17145-2 0  9999,2 50157  53.2165 263.4691 0001838  45.1891 162.0010 15.08838480 15305,6917.885,95.438,541.0219999999998,538.479,0.0
50157.0,STARLINK-3313,PAYLOAD,2022-03-26 14:00:01,15.08838725,0.0001865,53.2165,261.9731,47.4125,171.3546,-0.00084724,-0.00013746,0.0,0 STARLINK-3313,1 50157U 21125B   22085.58334491 -.00013746  00000-0 -84724-3 0  9994,2 50157  53.2165 261.9731 0001865  47.4125 171.3546 15.08838725  3573,6917.884,95.438,541.039,538.4590000000002,0.0
50157.0,STARLINK-3313,PAYLOAD,2022-03-26 20:00:01,15.08818389,0.0002028,53.2163,260.8521,43.277,94.1817,0.00098659,0.00015439,0.0,0 STARLINK-3313,1 50157U 21125B   22085.83334491  .00015439  00000-0  98659-3 0  9993,2 50157  53.2163 260.8521 0002028  43.2770  94.1817 15.08818389 15398,6917.946,95.439,541.214,538.408,0.0
50157.0,STARLINK-3313,PAYLOAD,2022-03-26 22:00:00,15.08805196,0.0002045,53.2163,260.4782,41.6902,188.6666,0.0031376,0.00049954,0.0,0 STARLINK-3313,1 50157U 21125B   22085.91667824  .00049954  00000-0  31376-2 0  9992,2 50157  53.2163 260.4782 0002045  41.6902 188.6666 15.08805196  3593,6917.986999999999,95.44,541.2669999999998,538.437,0.0
50157.0,STARLINK-3313,PAYLOAD,2022-03-27 14:00:01,15.08831922,0.0001872,53.2163,257.48400000000004,44.4154,209.0914,-0.00081444,-0.00013224,0.0,0 STARLINK-3313,1 50157U 21125B   22086.58334491 -.00013224  00000-0 -81444-3 0  9992,2 50157  53.2163 257.4840 0001872  44.4154 209.0914 15.08831922  3603,6917.905,95.438,541.065,538.475,0.0
50157.0,STARLINK-3313,PAYLOAD,2022-03-27 20:00:01,15.08808491,0.0002043,53.2164,256.363,40.5073,131.6856,0.001811,0.00028627,0.0,0 STARLINK-3313,1 50157U 21125B   22086.83334491  .00028627  00000-0  18110-2 0  9990,2 50157  53.2164 256.3630 0002043  40.5073 131.6856 15.08808491 15543,6917.977,95.44,541.255,538.428,0.0
50157.0,STARLINK-3313,PAYLOAD,2022-03-27 22:00:01,15.08800892,0.0002052,53.2163,255.989,39.2702,225.8801,0.0033961,0.00054119,0.0,0 STARLINK-3313,1 50157U 21125B   22086.91668981  .00054119  00000-0  33961-2 0  9999,2 50157  53.2163 255.9890 0002052  39.2702 225.8801 15.08800892  3606,6918.0,95.44,541.285,538.445,0.0
50157.0,STARLINK-3313,PAYLOAD,2022-03-28 14:00:01,15.08860816,0.0001966,53.2166,252.9948,44.1101,244.207,-0.00087312,-0.00014165,0.0,0 STARLINK-3313,1 50157U 21125B   22087.58335648 -.00014165  00000-0 -87312-3 0  9993,2 50157  53.2166 252.9948 0001966  44.1101 244.2070 15.08860816  3606,6917.816999999999,95.436,541.0419999999998,538.322,0.0
50157.0,STARLINK-3313,PAYLOAD,2022-03-28 22:00:00,15.08844103,0.00021,53.2165,251.4997,38.7715,261.1001,0.0017846,0.00028232,0.0,0 STARLINK-3313,1 50157U 21125B   22087.91667824  .00028232  00000-0  17846-2 0  9996,2 50157  53.2165 251.4997 0002100  38.7715 261.1001 15.08844103 15701,6917.868,95.437,541.186,538.28,0.0
50157.0,STARLINK-3313,PAYLOAD,2022-03-29 12:00:00,15.08864304,0.0001865,53.2171,248.8792,42.4021,187.7785,-0.0019402,-0.00031055,0.0,0 STARLINK-3313,1 50157U 21125B   22088.50001157 -.00031055  00000-0 -19402-2 0  9992,2 50157  53.2171 248.8792 0001865  42.4021 187.7785 15.08864304 15796,6917.806,95.436,540.961,538.381,0.0
50157.0,STARLINK-3313,PAYLOAD,2022-03-29 14:00:01,15.08873567,0.0001904,53.217,248.5056,39.9718,283.1095,-0.0038509,-0.00061113,0.0,0 STARLINK-3313,1 50157U 21125B   22088.58334491 -.00061113  00000-0 -38509-2 0  9997,2 50157  53.2170 248.5056 0001904  39.9718 283.1095 15.08873567  3561,6917.778,95.435,540.96,538.326,0.0
50157.0,STARLINK-3313,PAYLOAD,2022-03-29 22:00:00,15.08814026,0.0002029,53.2168,247.0102,34.4078,300.2861,0.0030713,0.00048897,0.0,0 STARLINK-3313,1 50157U 21125B   22088.91667824  .00048897  00000-0  30713-2 0  9994,2 50157  53.2168 247.0102 0002029  34.4078 300.2861 15.08814026  3569,6917.96,95.439,541.2280000000002,538.4209999999998,0.0
50157.0,STARLINK-3313,PAYLOAD,2022-03-30 02:00:01,15.08852063,0.0001945,53.2169,246.2611,36.2571,124.2202,-0.0012687,-0.0002043,0.0,0 STARLINK-3313,1 50157U 21125B   22089.08334491 -.00020430  00000-0 -12687-2 0  9999,2 50157  53.2169 246.2611 0001945  36.2571 124.2202 15.08852063 15884,6917.844,95.437,541.054,538.363,0.0
50157.0,STARLINK-3313,PAYLOAD,2022-03-30 14:00:01,15.08880174,0.0001873,53.2174,244.0164,36.8625,321.0728,-0.0044633999999999,-0.00070705,0.0,0 STARLINK-3313,1 50157U 21125B   22089.58335648 -.00070705  00000-0 -44634-2 0  9996,2 50157  53.2174 244.0164 0001873  36.8625 321.0728 15.08880174  3561,6917.7580000000025,95.435,540.918,538.327,0.0
50157.0,STARLINK-3313,PAYLOAD,2022-03-30 20:00:01,15.08811392,0.0002024,53.2173,242.8951,33.5074,243.0875,0.0029151,0.00046375,0.0,0 STARLINK-3313,1 50157U 21125B   22089.83334491  .00046375  00000-0  29151-2 0  9990,2 50157  53.2173 242.8951 0002024  33.5074 243.0875 15.08811392 15993,6917.968000000003,95.439,541.2330000000002,538.433,0.0
50157.0,STARLINK-3313,PAYLOAD,2022-03-30 22:00:00,15.08826764,0.0001996,53.2171,242.5208,31.7647,337.7211,0.0012799,0.00020133,0.0,0 STARLINK-3313,1 50157U 21125B   22089.91667824  .00020133  00000-0  12799-2 0  9992,2 50157  53.2171 242.5208 0001996  31.7647 337.7211 15.08826764  3627,6917.920999999999,95.438,541.1669999999998,538.405,0.0
50157.0,STARLINK-3313,PAYLOAD,2022-03-31 06:00:00,15.08807067,0.0001816,53.2173,241.0227,38.3153,342.7763,0.0022961,0.00036411,0.0,0 STARLINK-3313,1 50157U 21125B   22090.25001157  .00036411  00000-0  22961-2 0  9990,2 50157  53.2173 241.0227 0001816  38.3153 342.7763 15.08807067 16065,6917.981,95.44,541.102,538.59,0.0
